RADARSAT-2              
1 32382U 07061A   26199.87455532 -.00000204  00000+0 -62056-4 0  9998
2 32382  98.5783 206.3549 0001329  85.0497 275.0837 14.29982948970483
